start=new Date('2021-09-14T00:00:00.000Z').valueOf();
sats=[{"MEAN_MOTION_DOT":"-0.00000454","REF_FRAME":"TEME","SEMIMAJOR_AXIS":"6925.361","EPHEMERIS_TYPE":"0","MEAN_ANOMALY":"274.1389","TLE_LINE1":"1 48649U 21044M   21256.52286153 -.00000454  00000-0 -11633-4 0  9993","SITE":"AFETR","INCLINATION":"53.0497","LAUNCH_DATE":"2021-05-26","BSTAR":"-0.00001163300000","PERIOD":"95.592","CLASSIFICATION_TYPE":"U","OBJECT_ID":"2021-044M","CENTER_NAME":"EARTH","NORAD_CAT_ID":"48649","ELEMENT_SET_NO":"999","RA_OF_ASC_NODE":"275.6562","COUNTRY_CODE":"US","MEAN_MOTION_DDOT":"0.0000000000000","FILE":"3115005","ARG_OF_PERICENTER":"85.9657","RCS_SIZE":"LARGE","EPOCH":"2021-09-13T12:32:55.236192","DECAY_DATE":null,"MEAN_ELEMENT_THEORY":"SGP4","GP_ID":"184665093","PERIAPSIS":"546.879","OBJECT_TYPE":"PAYLOAD","REV_AT_EPOCH":"1679","OBJECT_NAME":"STARLINK-2673","TIME_SYSTEM":"UTC","ECCENTRICITY":"0.00005010","TLE_LINE2":"2 48649  53.0497 275.6562 0000501  85.9657 274.1389 15.06395998 16792","APOAPSIS":"547.573","MEAN_MOTION":"15.06395998"},{"OBJECT_ID":"2021-044N","CENTER_NAME":"EARTH","NORAD_CAT_ID":"48650","ELEMENT_SET_NO":"999","COUNTRY_CODE":"US","RA_OF_ASC_NODE":"275.6438","MEAN_MOTION_DDOT":"0.0000000000000","ARG_OF_PERICENTER":"94.8344","FILE":"3115005","MEAN_MOTION_DOT":"-0.00000634","REF_FRAME":"TEME","SEMIMAJOR_AXIS":"6925.366","EPHEMERIS_TYPE":"0","MEAN_ANOMALY":"265.2655","TLE_LINE1":"1 48650U 21044N   21256.51917909 -.00000634  00000-0 -23719-4 0  9992","SITE":"AFETR","INCLINATION":"53.0522","LAUNCH_DATE":"2021-05-26","BSTAR":"-0.00002371900000","CLASSIFICATION_TYPE":"U","PERIOD":"95.592","ECCENTRICITY":"0.00000800","TLE_LINE2":"2 48650  53.0522 275.6438 0000080  94.8344 265.2655 15.06394432 16798","APOAPSIS":"547.286","MEAN_MOTION":"15.06394432","RCS_SIZE":"LARGE","EPOCH":"2021-09-13T12:27:37.073376","DECAY_DATE":null,"MEAN_ELEMENT_THEORY":"SGP4","GP_ID":"184664938","PERIAPSIS":"547.175","OBJECT_TYPE":"PAYLOAD","REV_AT_EPOCH":"1679","OBJECT_NAME":"STARLINK-2672","TIME_SYSTEM":"UTC"},{"MEAN_ELEMENT_THEORY":"SGP4","RCS_SIZE":"LARGE","EPOCH":"2021-09-13T10:46:46.296480","DECAY_DATE":null,"REV_AT_EPOCH":"1678","OBJECT_NAME":"STARLINK-2731","TIME_SYSTEM":"UTC","GP_ID":"184665000","PERIAPSIS":"547.089","OBJECT_TYPE":"PAYLOAD","ECCENTRICITY":"0.00002130","TLE_LINE2":"2 48651  53.0535 275.9565 0000213 111.6440 248.4572 15.06392544 16782","MEAN_MOTION":"15.06392544","APOAPSIS":"547.384","SEMIMAJOR_AXIS":"6925.371","REF_FRAME":"TEME","EPHEMERIS_TYPE":"0","MEAN_ANOMALY":"248.4572","MEAN_MOTION_DOT":"0.00000863","LAUNCH_DATE":"2021-05-26","BSTAR":"0.00007683100000","PERIOD":"95.593","CLASSIFICATION_TYPE":"U","TLE_LINE1":"1 48651U 21044P   21256.44914695  .00000863  00000-0  76831-4 0  9999","SITE":"AFETR","INCLINATION":"53.0535","CENTER_NAME":"EARTH","NORAD_CAT_ID":"48651","OBJECT_ID":"2021-044P","FILE":"3115005","ARG_OF_PERICENTER":"111.6440","ELEMENT_SET_NO":"999","RA_OF_ASC_NODE":"275.9565","COUNTRY_CODE":"US","MEAN_MOTION_DDOT":"0.0000000000000"},{"ARG_OF_PERICENTER":"57.9630","FILE":"3115005","MEAN_MOTION_DDOT":"0.0000000000000","ELEMENT_SET_NO":"999","COUNTRY_CODE":"US","RA_OF_ASC_NODE":"274.1796","NORAD_CAT_ID":"48652","CENTER_NAME":"EARTH","OBJECT_ID":"2021-044Q","CLASSIFICATION_TYPE":"U","PERIOD":"95.592","LAUNCH_DATE":"2021-05-26","BSTAR":"0.00004408200000","INCLINATION":"53.0549","TLE_LINE1":"1 48652U 21044Q   21256.84352891  .00000376  00000-0  44082-4 0  9990","SITE":"AFETR","SEMIMAJOR_AXIS":"6925.335","REF_FRAME":"TEME","MEAN_ANOMALY":"302.1414","EPHEMERIS_TYPE":"0","MEAN_MOTION_DOT":"0.00000376","MEAN_MOTION":"15.06404304","APOAPSIS":"547.595","TLE_LINE2":"2 48652  53.0549 274.1796 0000570  57.9630 302.1414 15.06404304 16842","ECCENTRICITY":"0.00005700","OBJECT_NAME":"STARLINK-2727","TIME_SYSTEM":"UTC","REV_AT_EPOCH":"1684","PERIAPSIS":"546.806","OBJECT_TYPE":"PAYLOAD","GP_ID":"184665186","MEAN_ELEMENT_THEORY":"SGP4","RCS_SIZE":"LARGE","EPOCH":"2021-09-13T20:14:40.897824","DECAY_DATE":null},{"MEAN_ELEMENT_THEORY":"SGP4","RCS_SIZE":"LARGE","EPOCH":"2021-09-13T20:09:23.707008","DECAY_DATE":null,"OBJECT_NAME":"STARLINK-2720","TIME_SYSTEM":"UTC","REV_AT_EPOCH":"1684","PERIAPSIS":"547.031","OBJECT_TYPE":"PAYLOAD","GP_ID":"184664769","TLE_LINE2":"2 48653  53.0545 274.2006 0000313  71.8354 288.2669 15.06388971 16844","ECCENTRICITY":"0.00003130","MEAN_MOTION":"15.06388971","APOAPSIS":"547.464","REF_FRAME":"TEME","SEMIMAJOR_AXIS":"6925.382","EPHEMERIS_TYPE":"0","MEAN_ANOMALY":"288.2669","MEAN_MOTION_DOT":"-0.00001286","CLASSIFICATION_TYPE":"U","PERIOD":"95.593","BSTAR":"-0.00006748900000","LAUNCH_DATE":"2021-05-26","INCLINATION":"53.0545","TLE_LINE1":"1 48653U 21044R   21256.83985772 -.00001286  00000-0 -67489-4 0  9999","SITE":"AFETR","NORAD_CAT_ID":"48653","CENTER_NAME":"EARTH","OBJECT_ID":"2021-044R","ARG_OF_PERICENTER":"71.8354","FILE":"3115005","MEAN_MOTION_DDOT":"0.0000000000000","ELEMENT_SET_NO":"999","COUNTRY_CODE":"US","RA_OF_ASC_NODE":"274.2006"},{"MEAN_ANOMALY":"267.2932","EPHEMERIS_TYPE":"0","SEMIMAJOR_AXIS":"6925.359","REF_FRAME":"TEME","MEAN_MOTION_DOT":"-0.00001023","BSTAR":"-0.00004982400000","LAUNCH_DATE":"2021-05-26","PERIOD":"95.592","CLASSIFICATION_TYPE":"U","SITE":"AFETR","TLE_LINE1":"1 48654U 21044S   21256.43808908 -.00001023  00000-0 -49824-4 0  9993","INCLINATION":"53.0557","CENTER_NAME":"EARTH","NORAD_CAT_ID":"48654","OBJECT_ID":"2021-044S","FILE":"3114796","ARG_OF_PERICENTER":"92.8117","COUNTRY_CODE":"US","RA_OF_ASC_NODE":"276.0112","ELEMENT_SET_NO":"999","MEAN_MOTION_DDOT":"0.0000000000000","MEAN_ELEMENT_THEORY":"SGP4","DECAY_DATE":null,"RCS_SIZE":"LARGE","EPOCH":"2021-09-13T10:30:50.896512","REV_AT_EPOCH":"1678","TIME_SYSTEM":"UTC","OBJECT_NAME":"STARLINK-2651","GP_ID":"184637215","OBJECT_TYPE":"PAYLOAD","PERIAPSIS":"546.864","ECCENTRICITY":"0.00005200","TLE_LINE2":"2 48654  53.0557 276.0112 0000520  92.8117 267.2932 15.06396548 16788","MEAN_MOTION":"15.06396548","APOAPSIS":"547.584"},{"MEAN_MOTION":"15.06372257","APOAPSIS":"548.357","ECCENTRICITY":"0.00015280","TLE_LINE2":"2 48655  53.0549 276.0236 0001528 118.5502 241.5641 15.06372257 16783","REV_AT_EPOCH":"1678","TIME_SYSTEM":"UTC","OBJECT_NAME":"STARLINK-2657","GP_ID":"184664676","OBJECT_TYPE":"PAYLOAD","PERIAPSIS":"546.240","MEAN_ELEMENT_THEORY":"SGP4","DECAY_DATE":null,"EPOCH":"2021-09-13T10:25:32.708640","RCS_SIZE":"LARGE","FILE":"3115005","ARG_OF_PERICENTER":"118.5502","COUNTRY_CODE":"US","RA_OF_ASC_NODE":"276.0236","ELEMENT_SET_NO":"999","MEAN_MOTION_DDOT":"0.0000000000000","CENTER_NAME":"EARTH","NORAD_CAT_ID":"48655","OBJECT_ID":"2021-044T","LAUNCH_DATE":"2021-05-26","BSTAR":"0.00045651000000","CLASSIFICATION_TYPE":"U","PERIOD":"95.594","SITE":"AFETR","TLE_LINE1":"1 48655U 21044T   21256.43440635  .00006520  00000-0  45651-3 0  9991","INCLINATION":"53.0549","MEAN_ANOMALY":"241.5641","EPHEMERIS_TYPE":"0","REF_FRAME":"TEME","SEMIMAJOR_AXIS":"6925.434","MEAN_MOTION_DOT":"0.00006520"},{"MEAN_MOTION":"15.06391764","APOAPSIS":"547.785","ECCENTRICITY":"0.00007880","TLE_LINE2":"2 48656  53.0547 276.0376 0000788  74.5411 285.5665 15.06391764 16782","REV_AT_EPOCH":"1678","OBJECT_NAME":"STARLINK-2701","TIME_SYSTEM":"UTC","GP_ID":"184637445","PERIAPSIS":"546.693","OBJECT_TYPE":"PAYLOAD","MEAN_ELEMENT_THEORY":"SGP4","RCS_SIZE":"LARGE","EPOCH":"2021-09-13T10:20:13.847712","DECAY_DATE":null,"FILE":"3114796","ARG_OF_PERICENTER":"74.5411","ELEMENT_SET_NO":"999","RA_OF_ASC_NODE":"276.0376","COUNTRY_CODE":"US","MEAN_MOTION_DDOT":"0.0000000000000","CENTER_NAME":"EARTH","NORAD_CAT_ID":"48656","OBJECT_ID":"2021-044U","LAUNCH_DATE":"2021-05-26","BSTAR":"0.00005682700000","CLASSIFICATION_TYPE":"U","PERIOD":"95.593","TLE_LINE1":"1 48656U 21044U   21256.43071583  .00000565  00000-0  56827-4 0  9995","SITE":"AFETR","INCLINATION":"53.0547","SEMIMAJOR_AXIS":"6925.374","REF_FRAME":"TEME","EPHEMERIS_TYPE":"0","MEAN_ANOMALY":"285.5665","MEAN_MOTION_DOT":"0.00000565"},{"OBJECT_ID":"2021-044V","NORAD_CAT_ID":"48657","CENTER_NAME":"EARTH","MEAN_MOTION_DDOT":"0.0000000000000","ELEMENT_SET_NO":"999","RA_OF_ASC_NODE":"276.6503","COUNTRY_CODE":"US","FILE":"3114796","ARG_OF_PERICENTER":"56.4855","MEAN_MOTION_DOT":"-0.00001217","SEMIMAJOR_AXIS":"6925.368","REF_FRAME":"TEME","EPHEMERIS_TYPE":"0","MEAN_ANOMALY":"303.6183","INCLINATION":"53.0546","TLE_LINE1":"1 48657U 21044V   21256.29433982 -.00001217  00000-0 -62892-4 0  9991","SITE":"AFETR","CLASSIFICATION_TYPE":"U","PERIOD":"95.593","BSTAR":"-0.00006289200000","LAUNCH_DATE":"2021-05-26","TLE_LINE2":"2 48657  53.0546 276.6503 0000512  56.4855 303.6183 15.06393593 16763","ECCENTRICITY":"0.00005120","APOAPSIS":"547.588","MEAN_MOTION":"15.06393593","RCS_SIZE":"LARGE","EPOCH":"2021-09-13T07:03:50.960448","DECAY_DATE":null,"MEAN_ELEMENT_THEORY":"SGP4","PERIAPSIS":"546.879","OBJECT_TYPE":"PAYLOAD","GP_ID":"184637259","OBJECT_NAME":"STARLINK-2734","TIME_SYSTEM":"UTC","REV_AT_EPOCH":"1676"},{"MEAN_ELEMENT_THEORY":"SGP4","RCS_SIZE":"LARGE","EPOCH":"2021-09-13T08:34:04.935648","DECAY_DATE":null,"OBJECT_NAME":"STARLINK-2647","TIME_SYSTEM":"UTC","REV_AT_EPOCH":"1677","PERIAPSIS":"546.420","OBJECT_TYPE":"PAYLOAD","GP_ID":"184637538","TLE_LINE2":"2 48658  53.0559 276.3747 0001160 100.3012 259.8108 15.06396911 16776","ECCENTRICITY":"0.00011600","MEAN_MOTION":"15.06396911","APOAPSIS":"548.026","REF_FRAME":"TEME","SEMIMAJOR_AXIS":"6925.358","MEAN_ANOMALY":"259.8108","EPHEMERIS_TYPE":"0","MEAN_MOTION_DOT":"-0.00001027","PERIOD":"95.592","CLASSIFICATION_TYPE":"U","LAUNCH_DATE":"2021-05-26","BSTAR":"-0.00005006900000","INCLINATION":"53.0559","TLE_LINE1":"1 48658U 21044W   21256.35700157 -.00001027  00000-0 -50069-4 0  9992","SITE":"AFETR","NORAD_CAT_ID":"48658","CENTER_NAME":"EARTH","OBJECT_ID":"2021-044W","ARG_OF_PERICENTER":"100.3012","FILE":"3114796","MEAN_MOTION_DDOT":"0.0000000000000","ELEMENT_SET_NO":"999","RA_OF_ASC_NODE":"276.3747","COUNTRY_CODE":"US"}];
